{
  "norad_id": 51873,
  "name": "STARLINK-3582",
  "history": [
    {
      "epoch": "2026-03-28T18:57:58.479552",
      "apogee_km": 512.4914082647456,
      "perigee_km": 510.54356514826486,
      "latitude_deg": -53.08363808484067,
      "longitude_deg": 163.16497728019021,
      "semi_major_axis_km": 6889.654486706505,
      "eccentricity": 0.00014136,
      "inclination_deg": 53.2099,
      "raan_deg": 278.2383,
      "arg_perigee_deg": 232.0791,
      "mean_anomaly_deg": 128.0078,
      "mean_motion_rev_day": 15.18121734
    }
  ]
}